[{
    "OBJECT_NAME": "STARLINK-5000",
    "OBJECT_ID": "2022-119BB",
    "EPOCH": "2023-07-17T08:32:16.643616",
    "MEAN_MOTION": 15.08839783,
    "ECCENTRICITY": 0.0001121,
    "INCLINATION": 53.2174,
    "RA_OF_ASC_NODE": 307.045,
    "ARG_OF_PERICENTER": 89.1976,
    "MEAN_ANOMALY": 270.9144,
    "EPHEMERIS_TYPE": 0,
    "CLASSIFICATION_TYPE": "U",
    "NORAD_CAT_ID": 53935,
    "ELEMENT_SET_NO": 999,
    "REV_AT_EPOCH": 4587,
    "BSTAR": 8.2183e-5,
    "MEAN_MOTION_DOT": 1.02e-5,
    "MEAN_MOTION_DDOT": 0
},{
    "OBJECT_NAME": "STARLINK-4791",
    "OBJECT_ID": "2022-119BC",
    "EPOCH": "2023-07-16T02:02:42.208800",
    "MEAN_MOTION": 15.08838436,
    "ECCENTRICITY": 0.0001005,
    "INCLINATION": 53.2173,
    "RA_OF_ASC_NODE": 322.6066,
    "ARG_OF_PERICENTER": 84.2912,
    "MEAN_ANOMALY": 275.8195,
    "EPHEMERIS_TYPE": 0,
    "CLASSIFICATION_TYPE": "U",
    "NORAD_CAT_ID": 53936,
    "ELEMENT_SET_NO": 999,
    "REV_AT_EPOCH": 4554,
    "BSTAR": 4.2161e-5,
    "MEAN_MOTION_DOT": 3.83e-6,
    "MEAN_MOTION_DDOT": 0
},{
    "OBJECT_NAME": "STARLINK-4765",
    "OBJECT_ID": "2022-119BD",
    "EPOCH": "2023-07-16T18:21:05.824800",
    "MEAN_MOTION": 15.08831689,
    "ECCENTRICITY": 7.24e-5,
    "INCLINATION": 53.2175,
    "RA_OF_ASC_NODE": 314.7526,
    "ARG_OF_PERICENTER": 112.1007,
    "MEAN_ANOMALY": 248.0062,
    "EPHEMERIS_TYPE": 0,
    "CLASSIFICATION_TYPE": "U",
    "NORAD_CAT_ID": 53937,
    "ELEMENT_SET_NO": 999,
    "REV_AT_EPOCH": 4571,
    "BSTAR": -0.00011483,
    "MEAN_MOTION_DOT": -2.114e-5,
    "MEAN_MOTION_DDOT": 0
},{
    "OBJECT_NAME": "STARLINK-4633",
    "OBJECT_ID": "2022-125A",
    "EPOCH": "2023-07-17T09:41:51.994464",
    "MEAN_MOTION": 15.08846596,
    "ECCENTRICITY": 0.000107,
    "INCLINATION": 53.2161,
    "RA_OF_ASC_NODE": 242.0999,
    "ARG_OF_PERICENTER": 93.7167,
    "MEAN_ANOMALY": 266.3948,
    "EPHEMERIS_TYPE": 0,
    "CLASSIFICATION_TYPE": "U",
    "NORAD_CAT_ID": 53964,
    "ELEMENT_SET_NO": 999,
    "REV_AT_EPOCH": 4351,
    "BSTAR": 4.5238e-5,
    "MEAN_MOTION_DOT": 4.32e-6,
    "MEAN_MOTION_DDOT": 0
},{
    "OBJECT_NAME": "STARLINK-4578",
    "OBJECT_ID": "2022-125B",
    "EPOCH": "2023-07-17T09:37:56.487936",
    "MEAN_MOTION": 15.08846145,
    "ECCENTRICITY": 0.0001105,
    "INCLINATION": 53.2166,
    "RA_OF_ASC_NODE": 242.0825,
    "ARG_OF_PERICENTER": 85.3271,
    "MEAN_ANOMALY": 274.7848,
    "EPHEMERIS_TYPE": 0,
    "CLASSIFICATION_TYPE": "U",
    "NORAD_CAT_ID": 53965,
    "ELEMENT_SET_NO": 999,
    "REV_AT_EPOCH": 4351,
    "BSTAR": 7.2584e-5,
    "MEAN_MOTION_DOT": 8.68e-6,
    "MEAN_MOTION_DDOT": 0
},{
    "OBJECT_NAME": "STARLINK-4635",
    "OBJECT_ID": "2022-125C",
    "EPOCH": "2023-07-17T09:31:16.035168",
    "MEAN_MOTION": 15.08834217,
    "ECCENTRICITY": 0.0001156,
    "INCLINATION": 53.2165,
    "RA_OF_ASC_NODE": 242.0531,
    "ARG_OF_PERICENTER": 94.1129,
    "MEAN_ANOMALY": 265.9995,
    "EPHEMERIS_TYPE": 0,
    "CLASSIFICATION_TYPE": "U",
    "NORAD_CAT_ID": 53966,
    "ELEMENT_SET_NO": 999,
    "REV_AT_EPOCH": 4351,
    "BSTAR": 0.00014279,
    "MEAN_MOTION_DOT": 1.985e-5,
    "MEAN_MOTION_DDOT": 0
},{
    "OBJECT_NAME": "STARLINK-4634",
    "OBJECT_ID": "2022-125D",
    "EPOCH": "2023-07-16T20:42:52.756704",
    "MEAN_MOTION": 15.08833671,
    "ECCENTRICITY": 0.0001103,
    "INCLINATION": 53.2148,
    "RA_OF_ASC_NODE": 244.4084,
    "ARG_OF_PERICENTER": 77.4256,
    "MEAN_ANOMALY": 282.686,
    "EPHEMERIS_TYPE": 0,
    "CLASSIFICATION_TYPE": "U",
    "NORAD_CAT_ID": 53967,
    "ELEMENT_SET_NO": 999,
    "REV_AT_EPOCH": 4343,
    "BSTAR": 0.00013449,
    "MEAN_MOTION_DOT": 1.853e-5,
    "MEAN_MOTION_DDOT": 0
},{
    "OBJECT_NAME": "STARLINK-4629",
    "OBJECT_ID": "2022-125E",
    "EPOCH": "2023-07-17T09:10:02.092224",
    "MEAN_MOTION": 15.0884629,
    "ECCENTRICITY": 0.0001092,
    "INCLINATION": 53.2165,
    "RA_OF_ASC_NODE": 241.9623,
    "ARG_OF_PERICENTER": 90.1202,
    "MEAN_ANOMALY": 269.9915,
    "EPHEMERIS_TYPE": 0,
    "CLASSIFICATION_TYPE": "U",
    "NORAD_CAT_ID": 53968,
    "ELEMENT_SET_NO": 999,
    "REV_AT_EPOCH": 4351,
    "BSTAR": 8.9278e-5,
    "MEAN_MOTION_DOT": 1.134e-5,
    "MEAN_MOTION_DDOT": 0
},{
    "OBJECT_NAME": "STARLINK-4468",
    "OBJECT_ID": "2022-125F",
    "EPOCH": "2023-07-17T09:20:38.955264",
    "MEAN_MOTION": 15.08841515,
    "ECCENTRICITY": 0.0002067,
    "INCLINATION": 53.2165,
    "RA_OF_ASC_NODE": 242.0076,
    "ARG_OF_PERICENTER": 285.3726,
    "MEAN_ANOMALY": 74.7037,
    "EPHEMERIS_TYPE": 0,
    "CLASSIFICATION_TYPE": "U",
    "NORAD_CAT_ID": 53969,
    "ELEMENT_SET_NO": 999,
    "REV_AT_EPOCH": 4351,
    "BSTAR": 6.3594e-5,
    "MEAN_MOTION_DOT": 7.24e-6,
    "MEAN_MOTION_DDOT": 0
},{
    "OBJECT_NAME": "STARLINK-4567",
    "OBJECT_ID": "2022-125G",
    "EPOCH": "2023-07-17T09:23:57.936192",
    "MEAN_MOTION": 15.0884752,
    "ECCENTRICITY": 9.81e-5,
    "INCLINATION": 53.2156,
    "RA_OF_ASC_NODE": 237.0454,
    "ARG_OF_PERICENTER": 83.3604,
    "MEAN_ANOMALY": 276.7499,
    "EPHEMERIS_TYPE": 0,
    "CLASSIFICATION_TYPE": "U",
    "NORAD_CAT_ID": 53970,
    "ELEMENT_SET_NO": 999,
    "REV_AT_EPOCH": 4358,
    "BSTAR": 0.0001361,
    "MEAN_MOTION_DOT": 1.879e-5,
    "MEAN_MOTION_DDOT": 0
},{
    "OBJECT_NAME": "STARLINK-4639",
    "OBJECT_ID": "2022-125H",
    "EPOCH": "2023-07-17T09:15:20.585952",
    "MEAN_MOTION": 15.0884339,
    "ECCENTRICITY": 0.0001007,
    "INCLINATION": 53.2158,
    "RA_OF_ASC_NODE": 241.9842,
    "ARG_OF_PERICENTER": 86.0966,
    "MEAN_ANOMALY": 274.0142,
    "EPHEMERIS_TYPE": 0,
    "CLASSIFICATION_TYPE": "U",
    "NORAD_CAT_ID": 53971,
    "ELEMENT_SET_NO": 999,
    "REV_AT_EPOCH": 4351,
    "BSTAR": 7.3999e-5,
    "MEAN_MOTION_DOT": 8.9e-6,
    "MEAN_MOTION_DDOT": 0
},{
    "OBJECT_NAME": "STARLINK-5157",
    "OBJECT_ID": "2022-125J",
    "EPOCH": "2023-07-17T09:08:03.163488",
    "MEAN_MOTION": 15.08836951,
    "ECCENTRICITY": 9.59e-5,
    "INCLINATION": 53.2157,
    "RA_OF_ASC_NODE": 236.9745,
    "ARG_OF_PERICENTER": 92.974,
    "MEAN_ANOMALY": 267.1362,
    "EPHEMERIS_TYPE": 0,
    "CLASSIFICATION_TYPE": "U",
    "NORAD_CAT_ID": 53972,
    "ELEMENT_SET_NO": 999,
    "REV_AT_EPOCH": 4358,
    "BSTAR": 0.0001546,
    "MEAN_MOTION_DOT": 2.173e-5,
    "MEAN_MOTION_DDOT": 0
},{
    "OBJECT_NAME": "STARLINK-5156",
    "OBJECT_ID": "2022-125K",
    "EPOCH": "2023-07-17T10:40:06.764736",
    "MEAN_MOTION": 15.08846248,
    "ECCENTRICITY": 6.91e-5,
    "INCLINATION": 53.2155,
    "RA_OF_ASC_NODE": 241.6434,
    "ARG_OF_PERICENTER": 76.9994,
    "MEAN_ANOMALY": 283.1076,
    "EPHEMERIS_TYPE": 0,
    "CLASSIFICATION_TYPE": "U",
    "NORAD_CAT_ID": 53973,
    "ELEMENT_SET_NO": 999,
    "REV_AT_EPOCH": 4352,
    "BSTAR": 0.00014971,
    "MEAN_MOTION_DOT": 2.096e-5,
    "MEAN_MOTION_DDOT": 0
},{
    "OBJECT_NAME": "STARLINK-5159",
    "OBJECT_ID": "2022-125L",
    "EPOCH": "2023-07-16T08:28:51.706272",
    "MEAN_MOTION": 15.08832519,
    "ECCENTRICITY": 0.0001032,
    "INCLINATION": 53.2161,
    "RA_OF_ASC_NODE": 226.2642,
    "ARG_OF_PERICENTER": 92.6223,
    "MEAN_ANOMALY": 267.4887,
    "EPHEMERIS_TYPE": 0,
    "CLASSIFICATION_TYPE": "U",
    "NORAD_CAT_ID": 53974,
    "ELEMENT_SET_NO": 999,
    "REV_AT_EPOCH": 4364,
    "BSTAR": 0.00014145,
    "MEAN_MOTION_DOT": 1.964e-5,
    "MEAN_MOTION_DDOT": 0
}]
