STARLINK-5000
1 53935U 22119BB  23198.35574819  .00001020  00000+0  82183-4 0  9993
2 53935  53.2174 307.0450 0001121  89.1976 270.9144 15.08839783 45876
STARLINK-4791
1 53936U 22119BC  23197.08521075  .00000383  00000+0  42161-4 0  9992
2 53936  53.2173 322.6066 0001005  84.2912 275.8195 15.08838436 45547
STARLINK-4765
1 53937U 22119BD  23197.76465075 -.00002114  00000+0 -11483-3 0  9993
2 53937  53.2175 314.7526 0000724 112.1007 248.0062 15.08831689 45713
STARLINK-4633
1 53964U 22125A   23198.40407401  .00000432  00000+0  45238-4 0  9996
2 53964  53.2161 242.0999 0001070  93.7167 266.3948 15.08846596 43516
STARLINK-4578
1 53965U 22125B   23198.40134824  .00000868  00000+0  72584-4 0  9990
2 53965  53.2166 242.0825 0001105  85.3271 274.7848 15.08846145 43514
STARLINK-4635
1 53966U 22125C   23198.39671337  .00001985  00000+0  14279-3 0  9991
2 53966  53.2165 242.0531 0001156  94.1129 265.9995 15.08834217 43516
STARLINK-4634
1 53967U 22125D   23197.86311061  .00001853  00000+0  13449-3 0  9990
2 53967  53.2148 244.4084 0001103  77.4256 282.6860 15.08833671 43435
STARLINK-4629
1 53968U 22125E   23198.38196866  .00001134  00000+0  89278-4 0  9999
2 53968  53.2165 241.9623 0001092  90.1202 269.9915 15.08846290 43515
STARLINK-4468
1 53969U 22125F   23198.38933976  .00000724  00000+0  63594-4 0  9998
2 53969  53.2165 242.0076 0002067 285.3726  74.7037 15.08841515 43514
STARLINK-4567
1 53970U 22125G   23198.39164278  .00001879  00000+0  13610-3 0  9997
2 53970  53.2156 237.0454 0000981  83.3604 276.7499 15.08847520 43589
STARLINK-4639
1 53971U 22125H   23198.38565493  .00000890  00000+0  73999-4 0  9990
2 53971  53.2158 241.9842 0001007  86.0966 274.0142 15.08843390 43518
STARLINK-5157
1 53972U 22125J   23198.38059217  .00002173  00000+0  15460-3 0  9997
2 53972  53.2157 236.9745 0000959  92.9740 267.1362 15.08836951 43584
STARLINK-5156
1 53973U 22125K   23198.44452274  .00002096  00000+0  14971-3 0  9995
2 53973  53.2155 241.6434 0000691  76.9994 283.1076 15.08846248 43521
STARLINK-5159
1 53974U 22125L   23197.35337623  .00001964  00000+0  14145-3 0  9991
2 53974  53.2161 226.2642 0001032  92.6223 267.4887 15.08832519 43643
